{
    "links": {
        "self": "http://www.neowsapp.com/rest/v1/neo/3986835?api_key=iIulBulltgU6a56xZRHN4H3l9WmuAYTsLGpBGhQ2"
    },
    "id": "3986835",
    "neo_reference_id": "3986835",
    "name": "(2020 BW2)",
    "designation": "2020 BW2",
    "nasa_jpl_url": "http://ssd.jpl.nasa.gov/sbdb.cgi?sstr=3986835",
    "absolute_magnitude_h": 24.651,
    "estimated_diameter": {
        "kilometers": {
            "estimated_diameter_min": 0.0312143989,
            "estimated_diameter_max": 0.0697975179
        },
        "meters": {
            "estimated_diameter_min": 31.2143989379,
            "estimated_diameter_max": 69.797517902
        },
        "miles": {
            "estimated_diameter_min": 0.0193957223,
            "estimated_diameter_max": 0.0433701535
        },
        "feet": {
            "estimated_diameter_min": 102.4094486115,
            "estimated_diameter_max": 228.9944886337
        }
    },
    "is_potentially_hazardous_asteroid": false,
    "close_approach_data": [
        {
            "close_approach_date": "1998-01-22",
            "close_approach_date_full": "1998-Jan-22 04:10",
            "epoch_date_close_approach": 885442200000,
            "relative_velocity": {
                "kilometers_per_second": "12.7280300956",
                "kilometers_per_hour": "45820.9083441316",
                "miles_per_hour": "28471.33052083"
            },
            "miss_distance": {
                "astronomical": "0.4363273923",
                "lunar": "169.7313556047",
                "kilometers": "65273648.510734401",
                "miles": "40559164.4311246938"
            },
            "orbiting_body": "Earth"
        },
        {
            "close_approach_date": "2009-01-29",
            "close_approach_date_full": "2009-Jan-29 17:45",
            "epoch_date_close_approach": 1233251100000,
            "relative_velocity": {
                "kilometers_per_second": "8.5321559375",
                "kilometers_per_hour": "30715.7613751465",
                "miles_per_hour": "19085.5796166848"
            },
            "miss_distance": {
                "astronomical": "0.2888132341",
                "lunar": "112.3483480649",
                "kilometers": "43205844.649171367",
                "miles": "26846866.9592321846"
            },
            "orbiting_body": "Earth"
        },
        {
            "close_approach_date": "2020-02-11",
            "close_approach_date_full": "2020-Feb-11 01:34",
            "epoch_date_close_approach": 1581384840000,
            "relative_velocity": {
                "kilometers_per_second": "4.7577376956",
                "kilometers_per_hour": "17127.8557042571",
                "miles_per_hour": "10642.583451348"
            },
            "miss_distance": {
                "astronomical": "0.1541254494",
                "lunar": "59.9547998166",
                "kilometers": "23056838.943032778",
                "miles": "14326855.3740892164"
            },
            "orbiting_body": "Earth"
        },
        {
            "close_approach_date": "2022-03-07",
            "close_approach_date_full": "2022-Mar-07 16:48",
            "epoch_date_close_approach": 1646671680000,
            "relative_velocity": {
                "kilometers_per_second": "3.3668095452",
                "kilometers_per_hour": "12120.5143628589",
                "miles_per_hour": "7531.2162717442"
            },
            "miss_distance": {
                "astronomical": "1.8613838625",
                "lunar": "724.0783225125",
                "kilometers": "278459061.082372875",
                "miles": "173026437.214080675"
            },
            "orbiting_body": "Juptr"
        },
        {
            "close_approach_date": "2033-01-19",
            "close_approach_date_full": "2033-Jan-19 21:31",
            "epoch_date_close_approach": 1989783060000,
            "relative_velocity": {
                "kilometers_per_second": "2.9285467396",
                "kilometers_per_hour": "10542.7682625651",
                "miles_per_hour": "6550.8662018144"
            },
            "miss_distance": {
                "astronomical": "1.5440448851",
                "lunar": "600.6334603039",
                "kilometers": "230985825.995354737",
                "miles": "143527936.7946478906"
            },
            "orbiting_body": "Juptr"
        }
    ],
    "orbital_data": {
        "orbit_id": "11",
        "orbit_determination_date": "2020-09-11 07:46:41",
        "first_observation_date": "2020-01-19",
        "last_observation_date": "2020-03-13",
        "data_arc_in_days": 54,
        "observations_used": 48,
        "orbit_uncertainty": "6",
        "minimum_orbit_intersection": ".154034",
        "jupiter_tisserand_invariant": "3.335",
        "epoch_osculation": "2459000.5",
        "eccentricity": ".5215264404148254",
        "semi_major_axis": "2.383862354715874",
        "inclination": "3.893105657523299",
        "ascending_node_longitude": "326.2267847226174",
        "orbital_period": "1344.374264155568",
        "perihelion_distance": "1.140615106422",
        "perihelion_argument": "173.3314169882285",
        "aphelion_distance": "3.627109603009747",
        "perihelion_time": "2458888.630581142423",
        "mean_anomaly": "29.95668086076026",
        "mean_motion": ".2677825733491887",
        "equinox": "J2000",
        "orbit_class": {
            "orbit_class_type": "AMO",
            "orbit_class_description": "Near-Earth asteroid orbits similar to that of 1221 Amor",
            "orbit_class_range": "1.017 AU < q (perihelion) < 1.3 AU"
        }
    },
    "is_sentry_object": false
}